{
  "norad_id": 68675,
  "name": "STARLINK-36669",
  "history": [
    {
      "epoch": "2026-04-22T12:57:24.374016Z",
      "apogee_km": 343.9366085775464,
      "perigee_km": 342.8557860394194,
      "latitude_deg": -5.1293028893922694e-05,
      "longitude_deg": -61.3492418604822,
      "height_km": 346.69904446903496,
      "semi_major_axis_km": 6721.533197308482,
      "eccentricity": 8.04e-05,
      "inclination_deg": 97.2832,
      "raan_deg": 343.6023,
      "arg_perigee_deg": 104.503,
      "mean_anomaly_deg": 255.6324,
      "mean_motion_rev_day": 15.75434095
    }
  ]
}